{"generatedAt":"2026-04-07T07:40:58.503713Z","satellites":[{"name":"ONEWEB-0115","tle1":"1 48042U 21025A   26096.94965952  .00000264  00000+0  68707-3 0  9992","tle2":"2 48042  87.9004 334.4047 0001712  83.5039 276.6285 13.13469253244241"},{"name":"ONEWEB-0152","tle1":"1 48043U 21025B   26096.88702314  .00000181  00000+0  46165-3 0  9999","tle2":"2 48043  87.8998 334.4171 0001764  85.2952 274.8378 13.13467880244192"},{"name":"ONEWEB-0153","tle1":"1 48044U 21025C   26096.94119679  .00000119  00000+0  29212-3 0  9998","tle2":"2 48044  87.8996 334.4108 0001691  78.5159 281.6160 13.13469490244198"},{"name":"ONEWEB-0154","tle1":"1 48045U 21025D   26096.93781378  .00000036  00000+0  63357-4 0  9996","tle2":"2 48045  87.8998 334.4091 0001797  81.3405 278.7927 13.13470161244156"},{"name":"ONEWEB-0116","tle1":"1 48046U 21025E   26096.90055934 -.00000072  00000+0 -23316-3 0  9998","tle2":"2 48046  87.9005 334.4070 0001783  85.8852 274.2481 13.13468181244294"},{"name":"ONEWEB-0150","tle1":"1 48047U 21025F   26096.95304510  .00000302  00000+0  79198-3 0  9994","tle2":"2 48047  87.9008 334.3942 0001491  80.5860 279.5437 13.13468679244192"},{"name":"ONEWEB-0107","tle1":"1 48048U 21025G   26096.95473424  .00000109  00000+0  26246-3 0  9997","tle2":"2 48048  87.9013 334.3891 0001659  72.8740 287.2571 13.13469465244176"},{"name":"ONEWEB-0101","tle1":"1 48049U 21025H   26096.91748402 -.00000309  00000+0 -88165-3 0  9997","tle2":"2 48049  87.8995 334.4192 0001843  77.7494 282.3841 13.13467964244140"},{"name":"ONEWEB-0113","tle1":"1 48050U 21025J   26096.88984430  .00000077  00000+0  17501-3 0  9994","tle2":"2 48050  87.9002 334.3418 0001769  93.6310 266.5021 13.13949550244244"},{"name":"ONEWEB-0112","tle1":"1 48051U 21025K   26096.88363540  .00000287  00000+0  75180-3 0  9998","tle2":"2 48051  87.9007 334.4009 0001875  74.9906 285.1430 13.13468582244239"},{"name":"ONEWEB-0156","tle1":"1 48052U 21025L   26096.89209874  .00000205  00000+0  52772-3 0  9991","tle2":"2 48052  87.9004 334.4100 0001659  78.0152 282.1164 13.13468730244211"},{"name":"ONEWEB-0161","tle1":"1 48053U 21025M   26096.94288909  .00000231  00000+0  59815-3 0  9998","tle2":"2 48053  87.8994 334.4065 0001640  75.5860 284.5451 13.13469601244153"},{"name":"ONEWEB-0158","tle1":"1 48054U 21025N   26096.90225060 -.00000076  00000+0 -24280-3 0  9991","tle2":"2 48054  87.9005 334.4077 0001983  88.0756 272.0600 13.13468342244276"},{"name":"ONEWEB-0157","tle1":"1 48055U 21025P   26096.69910587 -.00000064  00000+0 -20994-3 0  9998","tle2":"2 48055  87.9003 334.4523 0001738  67.5763 292.5550 13.13468330244187"},{"name":"ONEWEB-0162","tle1":"1 48056U 21025Q   26096.90382082 -.00000246  00000+0 -70899-3 0  9997","tle2":"2 48056  87.9004 334.4159 0001535  81.1869 278.9434 13.13469228244184"},{"name":"ONEWEB-0155","tle1":"1 48057U 21025R   26096.91071422 -.00000247  00000+0 -70997-3 0  9992","tle2":"2 48057  87.8997 334.4118 0001838  76.4546 283.6788 13.13468326244324"},{"name":"ONEWEB-0149","tle1":"1 48058U 21025S   26096.93273020 -.00000063  00000+0 -20801-3 0  9998","tle2":"2 48058  87.9004 334.4061 0001491  81.9302 278.1996 13.13469889244132"},{"name":"ONEWEB-0148","tle1":"1 48059U 21025T   26096.89548724  .00000024  00000+0  30795-4 0  9999","tle2":"2 48059  87.8997 334.4263 0001132  75.0489 285.0765 13.13469047244259"},{"name":"ONEWEB-0160","tle1":"1 48060U 21025U   26096.91241392 -.00000375  00000+0 -10613-2 0  9991","tle2":"2 48060  87.8999 334.4186 0002094 101.5392 258.5972 13.13469316244202"},{"name":"ONEWEB-0163","tle1":"1 48061U 21025V   26096.89717331  .00000015  00000+0  54606-5 0  9992","tle2":"2 48061  87.9001 334.4151 0001740  71.6715 288.4604 13.13468054244328"},{"name":"ONEWEB-0159","tle1":"1 48062U 21025W   26096.88871621  .00000181  00000+0  46171-3 0  9995","tle2":"2 48062  87.9006 334.4054 0001578  73.9809 286.1494 13.13468017244246"},{"name":"ONEWEB-0164","tle1":"1 48063U 21025X   26096.94627415  .00000290  00000+0  75836-3 0  9994","tle2":"2 48063  87.9005 334.4005 0001783  83.7602 276.3730 13.13469359244233"},{"name":"ONEWEB-0167","tle1":"1 48064U 21025Y   26096.89802301 -.00000022  00000+0 -96308-4 0  9991","tle2":"2 48064  87.9000 334.4264 0002255  70.2647 289.8725 13.13467533244214"},{"name":"ONEWEB-0166","tle1":"1 48065U 21025Z   26096.92087875 -.00000321  00000+0 -91425-3 0  9993","tle2":"2 48065  87.9005 334.3867 0001525  78.4943 281.6358 13.13469402244293"},{"name":"ONEWEB-0151","tle1":"1 48066U 21025AA  26096.92256272 -.00000526  00000+0 -14758-2 0  9993","tle2":"2 48066  87.8998 334.4104 0001843  79.6232 280.5105 13.13470075244236"},{"name":"ONEWEB-0170","tle1":"1 48067U 21025AB  26096.93103833 -.00000065  00000+0 -21422-3 0  9994","tle2":"2 48067  87.8997 334.4104 0002147  86.7944 273.3431 13.13469516244198"},{"name":"ONEWEB-0168","tle1":"1 48068U 21025AC  26096.91579859 -.00000315  00000+0 -89844-3 0  9998","tle2":"2 48068  87.9005 334.4068 0001679  74.8947 285.2368 13.13469802244200"},{"name":"ONEWEB-0173","tle1":"1 48069U 21025AD  26096.90732763 -.00000276  00000+0 -79164-3 0  9993","tle2":"2 48069  87.9001 334.4145 0001870  69.6830 290.4500 13.13467823244442"},{"name":"ONEWEB-0171","tle1":"1 48070U 21025AE  26096.94458249  .00000307  00000+0  80604-3 0  9997","tle2":"2 48070  87.8991 334.4172 0001823  81.3099 278.8237 13.13469480244265"},{"name":"ONEWEB-0172","tle1":"1 48071U 21025AF  26096.69572509 -.00000184  00000+0 -53797-3 0  9994","tle2":"2 48071  87.8994 334.4542 0001854  77.1502 282.9834 13.13469483245124"},{"name":"ONEWEB-0174","tle1":"1 48072U 21025AG  26096.90563603 -.00000235  00000+0 -67721-3 0  9993","tle2":"2 48072  87.8995 334.4138 0001580  78.9086 281.2221 13.13467921244473"},{"name":"ONEWEB-0175","tle1":"1 48073U 21025AH  26096.93610463 -.00000172  00000+0 -50672-3 0  9991","tle2":"2 48073  87.9003 334.3858 0002057  80.5399 279.5962 13.13469872244131"},{"name":"ONEWEB-0177","tle1":"1 48074U 21025AJ  26096.94796510  .00000360  00000+0  95149-3 0  9996","tle2":"2 48074  87.9001 334.4047 0001626  74.7293 285.4016 13.13469403244327"},{"name":"ONEWEB-0178","tle1":"1 48075U 21025AK  26096.89054370  .00000078  00000+0  17880-3 0  9994","tle2":"2 48075  87.8981 334.4387 0001947  75.9646 284.1700 13.13469041244360"},{"name":"ONEWEB-0108","tle1":"1 48076U 21025AL  26096.92595840 -.00000305  00000+0 -87040-3 0  9991","tle2":"2 48076  87.9006 334.3971 0001581  87.3941 272.7370 13.13469246244292"},{"name":"ONEWEB-0169","tle1":"1 48077U 21025AM  26096.88194419  .00000279  00000+0  72985-3 0  9994","tle2":"2 48077  87.9000 334.4201 0001562  86.9408 273.1900 13.13468392242941"},{"name":"ONEWEB-0176","tle1":"1 48210U 21031A   26096.85661942  .00000021  00000+0  21387-4 0  9993","tle2":"2 48210  87.8935 303.9379 0001758  84.7453 275.3877 13.14502922238947"},{"name":"ONEWEB-0184","tle1":"1 48211U 21031B   26096.82965129 -.00000218  00000+0 -62239-3 0  9995","tle2":"2 48211  87.8948 303.9367 0002464  78.9062 281.2344 13.14501236238914"},{"name":"ONEWEB-0179","tle1":"1 48212U 21031C   26096.91668981  .00041345  00000+0  45726-1 0  9996","tle2":"2 48212  87.8938 303.6740 0001337  45.9975  50.5287 13.71483676  5231"},{"name":"ONEWEB-0180","tle1":"1 48213U 21031D   26096.83282221 -.00000421  00000+0 -11691-2 0  9994","tle2":"2 48213  87.8940 303.9375 0001752  76.3061 283.8263 13.14502388238846"},{"name":"ONEWEB-0218","tle1":"1 48214U 21031E   26096.93115118 -.00000098  00000+0 -29755-3 0  9997","tle2":"2 48214  87.8936 303.9165 0002414  71.8087 288.3306 13.14502764239019"},{"name":"ONEWEB-0209","tle1":"1 48215U 21031F   26096.84392418 -.00000274  00000+0 -77318-3 0  9992","tle2":"2 48215  87.8928 303.9582 0001561  80.0200 280.1106 13.14502987239009"},{"name":"ONEWEB-0198","tle1":"1 48216U 21031G   26096.82820837 -.00000337  00000+0 -94270-3 0  9998","tle2":"2 48216  87.8932 303.9614 0001838  73.3701 286.7631 13.14502632239113"},{"name":"ONEWEB-0189","tle1":"1 48217U 21031H   26096.84075245 -.00000435  00000+0 -12068-2 0  9999","tle2":"2 48217  87.8940 303.9376 0001801  76.2149 283.9181 13.14502923238858"},{"name":"ONEWEB-0196","tle1":"1 48218U 21031J   26096.81856401 -.00000103  00000+0 -31225-3 0  9997","tle2":"2 48218  87.8940 303.9526 0001698  81.4769 278.6553 13.14501879238859"},{"name":"ONEWEB-0183","tle1":"1 48219U 21031K   26096.86930191 -.00000025  00000+0 -10083-3 0  9994","tle2":"2 48219  87.8932 303.9419 0001462  89.2251 270.9046 13.14502005238958"},{"name":"ONEWEB-0185","tle1":"1 48220U 21031L   26096.81934895 -.00000136  00000+0 -40153-3 0  9990","tle2":"2 48220  87.8939 303.9385 0001327  79.9971 280.1308 13.14503646238871"},{"name":"ONEWEB-0187","tle1":"1 48221U 21031M   26096.87550363 -.00000035  00000+0 -12963-3 0  9997","tle2":"2 48221  87.8927 303.9560 0001548  77.9145 282.2158 13.14502312238897"},{"name":"ONEWEB-0192","tle1":"1 48222U 21031N   26096.84550814 -.00000296  00000+0 -83200-3 0  9997","tle2":"2 48222  87.8923 303.9507 0001762  84.7723 275.3607 13.14502617238802"},{"name":"ONEWEB-0219","tle1":"1 48223U 21031P   26096.13983591 -.00000178  00000+0 -51385-3 0  9990","tle2":"2 48223  87.8936 304.0795 0001519  79.9188 280.2114 13.14501856238913"},{"name":"ONEWEB-0202","tle1":"1 48224U 21031Q   26096.80587946  .00000103  00000+0  24330-3 0  9995","tle2":"2 48224  87.8939 303.9560 0002220  73.8610 286.2764 13.14502511238981"},{"name":"ONEWEB-0204","tle1":"1 48225U 21031R   26096.83996649 -.00000151  00000+0 -44248-3 0  9998","tle2":"2 48225  87.8941 303.9436 0001384  90.8462 269.2827 13.14501719238880"},{"name":"ONEWEB-0205","tle1":"1 48226U 21031S   26096.81538153 -.00000025  00000+0 -10272-3 0  9999","tle2":"2 48226  87.8937 303.9400 0001569  81.6647 278.4661 13.14500845238893"},{"name":"ONEWEB-0206","tle1":"1 48227U 21031T   26096.86456593  .00000223  00000+0  56830-3 0  9990","tle2":"2 48227  87.8944 303.9321 0001754  93.8688 266.2642 13.14503596238856"}]}